1 42026U 17008CG  21206.12865277  .00002454  00000-0  92210-4 0  9992
2 42026  97.3239 273.9077 0005852 326.1168  33.9697 15.28105503245021
1 42026U 17008CG  21206.45606648  .00002172  00000-0  81915-4 0  9990
2 42026  97.3239 274.2295 0005814 324.6608  35.4246 15.28105973245070
1 42026U 17008CG  21206.65251431  .00002326  00000-0  87541-4 0  9990
2 42026  97.3238 274.4227 0005794 323.9014  36.1833 15.28107460245103
1 42026U 17008CG  21207.43830553  .00002026  00000-0  76594-4 0  9998
2 42026  97.3236 275.1950 0005708 320.3004  39.7817 15.28109603245222
1 42026U 17008CG  21208.42054231  .00001911  00000-0  72397-4 0  9998
2 42026  97.3234 276.1606 0005655 315.8881  44.1907 15.28113159245379
1 42026U 17008CG  21208.74795417  .00001828  00000-0  69357-4 0  9990
2 42026  97.3237 276.4822 0005680 314.5622  45.5154 15.28113865245421
1 42026U 17008CG  21209.14084660  .00002137  00000-0  80619-4 0  9994
2 42026  97.3236 276.8685 0005678 312.8456  47.2306 15.28117340245480
1 42026U 17008CG  21209.73018301  .00003563  00000-0  13260-3 0  9999
2 42026  97.3231 277.4480 0005596 310.0440  50.0308 15.28125765245571
1 42026U 17008CG  21210.45048243  .00004034  00000-0  14973-3 0  9994
2 42026  97.3229 278.1560 0005540 306.6175  53.4555 15.28131319245685
1 42026U 17008CG  21210.71240892  .00003672  00000-0  13656-3 0  9991
2 42026  97.3229 278.4134 0005520 305.2810  54.7912 15.28132563245722
1 42026U 17008CG  21211.43270468  .00003242  00000-0  12085-3 0  9991
2 42026  97.3229 279.1214 0005473 302.0630  58.0078 15.28137204245830
1 42026U 17008CG  21211.62914949  .00002902  00000-0  10847-3 0  9997
2 42026  97.3230 279.3145 0005472 301.1384  58.9319 15.28137312245862
1 42026U 17008CG  21212.61136646  .00003810  00000-0  14154-3 0  9991
2 42026  97.3231 280.2798 0005412 296.7895  63.2791 15.28146111246016
1 42026U 17008CG  21213.13521405  .00003531  00000-0  13136-3 0  9999
2 42026  97.3230 280.7947 0005390 294.3597  65.7079 15.28148799246092
1 42026U 17008CG  21213.46261813  .00002717  00000-0  10169-3 0  9997
2 42026  97.3231 281.1165 0005380 292.7965  67.2706 15.28149189246144
1 42026U 17008CG  21213.65906095  .00002726  00000-0  10201-3 0  9993
2 42026  97.3232 281.3096 0005384 291.7659  68.3008 15.28149912246177
1 42026U 17008CG  21214.11742634  .00002635  00000-0  98689-4 0  9998
2 42026  97.3231 281.7601 0005375 289.6887  70.3772 15.28152148246245
1 42026U 17008CG  21215.16511709  .00002161  00000-0  81401-4 0  9999
2 42026  97.3232 282.7900 0005353 284.7307  75.3340 15.28155919246401
1 42026U 17008CG  21215.49251974  .00002222  00000-0  83617-4 0  9999
2 42026  97.3232 283.1117 0005346 282.9336  77.1307 15.28157597246452
1 42026U 17008CG  21216.14732367  .00002233  00000-0  84014-4 0  9996
2 42026  97.3233 283.7554 0005337 280.0235  80.0403 15.28160805246558
1 42026U 17008CG  21216.67116448  .00002888  00000-0  10786-3 0  9990
2 42026  97.3233 284.2702 0005322 277.2677  82.7958 15.28166012246630
1 42026U 17008CG  21216.99856483  .00002872  00000-0  10729-3 0  9995
2 42026  97.3233 284.5922 0005347 275.8876  84.1754 15.28167751246685
1 42026U 17008CG  21218.11172377  .00002701  00000-0  10102-3 0  9990
2 42026  97.3233 285.6864 0005349 270.6280  89.4347 15.28173624246857
1 42026U 17008CG  21218.17720383  .00002415  00000-0  90602-4 0  9998
2 42026  97.3233 285.7508 0005351 270.2889  89.7737 15.28172998246867
1 42026U 17008CG  21218.57008267  .00002218  00000-0  83425-4 0  9998
2 42026  97.3233 286.1370 0005351 268.4263  91.6363 15.28174538246920
1 42026U 17008CG  21219.35583725  .00002384  00000-0  89480-4 0  9993
2 42026  97.3232 286.9095 0005378 264.6356  95.4270 15.28179943247049
1 42026U 17008CG  21219.61775396  .00003402  00000-0  12649-3 0  9993
2 42026  97.3230 287.1669 0005367 263.4541  96.6088 15.28185214247080
1 42026U 17008CG  21220.40350502  .00003441  00000-0  12791-3 0  9991
2 42026  97.3229 287.9394 0005438 259.5724 100.4903 15.28189831247202
1 42026U 17008CG  21220.86185910  .00003238  00000-0  12052-3 0  9994
2 42026  97.3228 288.3900 0005441 257.3378 102.7253 15.28191995247278
1 42026U 17008CG  21221.45117005  .00002337  00000-0  87703-4 0  9995
2 42026  97.3226 288.9693 0005476 254.5767 105.4868 15.28193919247360
1 42026U 17008CG  21221.90952317  .00002414  00000-0  90514-4 0  9998
2 42026  97.3225 289.4197 0005490 252.3758 107.6882 15.28195363247439
1 42026U 17008CG  21222.43335414  .00001519  00000-0  57935-4 0  9995
2 42026  97.3224 289.9347 0005519 249.9203 110.1443 15.28195707247512
1 42026U 17008CG  21222.82622867  .00001970  00000-0  74339-4 0  9997
2 42026  97.3225 290.3206 0005538 248.7465 111.3183 15.28196162247577
1 42026U 17008CG  21223.08814407  .00001876  00000-0  70911-4 0  9996
2 42026  97.3225 290.5781 0005553 247.6231 112.4421 15.28196859247618
1 42026U 17008CG  21223.41553723  .00002021  00000-0  76199-4 0  9991
2 42026  97.3225 290.8999 0005573 246.0600 114.0057 15.28199399247667
1 42026U 17008CG  21223.87388756  .00001252  00000-0  48197-4 0  9995
2 42026  97.3220 291.3507 0005602 243.4987 116.5679 15.28199459247737
1 42026U 17008CG  21224.13580237  .00001259  00000-0  48479-4 0  9993
2 42026  97.3220 291.6081 0005622 242.3768 117.6901 15.28200239247777
1 42026U 17008CG  21224.46319619  .00001446  00000-0  55277-4 0  9995
2 42026  97.3223 291.9296 0005640 241.2668 118.8006 15.28201194247824
1 42026U 17008CG  21225.44537477  .00001416  00000-0  54170-4 0  9996
2 42026  97.3222 292.8950 0005710 236.8528 123.2164 15.28204356247977
1 42026U 17008CG  21226.49303069  .00001319  00000-0  50653-4 0  9994
2 42026  97.3221 293.9247 0005790 232.2804 127.7912 15.28206746248136
1 42026U 17008CG  21226.88590110  .00001303  00000-0  50062-4 0  9999
2 42026  97.3221 294.3109 0005817 230.5905 129.4820 15.28207758248198
1 42026U 17008CG  21227.40972788  .00001304  00000-0  50093-4 0  9998
2 42026  97.3220 294.8257 0005863 228.2866 131.7873 15.28209212248277
1 42026U 17008CG  21227.73711948  .00001293  00000-0  49668-4 0  9996
2 42026  97.3220 295.1475 0005885 226.9260 133.1488 15.28210012248324
1 42026U 17008CG  21227.80259781  .00001292  00000-0  49662-4 0  9999
2 42026  97.3220 295.2119 0005889 226.6622 133.4127 15.28210158248338
1 42026U 17008CG  21228.45737955  .00001460  00000-0  55750-4 0  9997
2 42026  97.3219 295.8554 0005948 223.8495 136.2274 15.28213034248439
1 42026U 17008CG  21228.71929257  .00001408  00000-0  53855-4 0  9990
2 42026  97.3219 296.1128 0005972 222.7410 137.3365 15.28213402248478
1 42026U 17008CG  21228.98120505  .00001449  00000-0  55353-4 0  9998
2 42026  97.3219 296.3703 0005996 221.6978 138.3805 15.28214355248515
1 42026U 17008CG  21229.43955165  .00001427  00000-0  54546-4 0  9996
2 42026  97.3219 296.8208 0006043 219.7933 140.2864 15.28215584248582
1 42026U 17008CG  21229.83241985  .00001451  00000-0  55428-4 0  9995
2 42026  97.3218 297.2069 0006075 218.1544 141.9266 15.28216868248644
1 42026U 17008CG  21230.35624385  .00001430  00000-0  54673-4 0  9991
2 42026  97.3218 297.7218 0006123 216.0052 144.0776 15.28218249248724
1 42026U 17008CG  21230.68363362  .00001410  00000-0  53923-4 0  9997
2 42026  97.3218 298.0436 0006149 214.6582 145.4257 15.28219060248776
1 42026U 17008CG  21231.40389038  .00001394  00000-0  53354-4 0  9995
2 42026  97.3217 298.7515 0006216 211.7656 148.3209 15.28220977248885
1 42026U 17008CG  21231.46936813  .00001435  00000-0  54831-4 0  9997
2 42026  97.3217 298.8158 0006220 211.4981 148.5887 15.28221408248897
1 42026U 17008CG  21231.66580152  .00001443  00000-0  55106-4 0  9995
2 42026  97.3217 299.0089 0006237 210.7267 149.3609 15.28222039248926
1 42026U 17008CG  21232.45153377  .00001561  00000-0  59421-4 0  9993
2 42026  97.3217 299.7811 0006326 207.6980 152.3923 15.28225165249042
1 42026U 17008CG  21233.43369713  .00001646  00000-0  62483-4 0  9991
2 42026  97.3216 300.7464 0006435 203.8694 156.2248 15.28228920249190
1 42026U 17008CG  21233.82656140  .00001793  00000-0  67816-4 0  9995
2 42026  97.3216 301.1325 0006469 202.3514 157.7445 15.28231208249258
1 42026U 17008CG  21233.95751637  .00001745  00000-0  66080-4 0  9995
2 42026  97.3215 301.2612 0006483 201.8677 158.2287 15.28231374249273
1 42026U 17008CG  21234.48133574  .00001758  00000-0  66557-4 0  9991
2 42026  97.3216 301.7760 0006542 199.8923 160.2063 15.28233067249354
1 42026U 17008CG  21234.87419958  .00001784  00000-0  67491-4 0  9994
2 42026  97.3215 302.1622 0006583 198.3975 161.7027 15.28234527249416
1 42026U 17008CG  21235.46349535  .00001698  00000-0  64367-4 0  9996
2 42026  97.3214 302.7413 0006654 196.1631 163.9397 15.28235907249500
1 42026U 17008CG  21235.92183531  .00001703  00000-0  64523-4 0  9990
2 42026  97.3213 303.1917 0006710 194.4634 165.6415 15.28237561249575
1 42026U 17008CG  21236.44565234  .00001880  00000-0  70954-4 0  9993
2 42026  97.3213 303.7065 0006760 192.5500 167.5573 15.28240211249652
1 42026U 17008CG  21236.64208369  .00001780  00000-0  67345-4 0  9997
2 42026  97.3212 303.8996 0006787 191.8160 168.2922 15.28240334249683
1 42026U 17008CG  21236.90399182  .00001462  00000-0  55760-4 0  9995
2 42026  97.3212 304.1570 0006815 190.8671 169.2422 15.28239529249728
1 42026U 17008CG  21237.16589873  .00002087  00000-0  78494-4 0  9995
2 42026  97.3211 304.4144 0006826 190.0034 170.1071 15.28244080249767
1 42026U 17008CG  21237.82066306  .00002850  00000-0  10618-3 0  9990
2 42026  97.3209 305.0579 0006887 187.6510 172.4626 15.28251896249866
1 42026U 17008CG  21238.40995405  .00003577  00000-0  13257-3 0  9995
2 42026  97.3205 305.6374 0007003 185.2806 174.8361 15.28254804249958
1 42026U 17008CG  21238.73733637  .00003438  00000-0  12749-3 0  9999
2 42026  97.3204 305.9590 0007030 184.1502 175.9680 15.28256253250005
1 42026U 17008CG  21239.13019443  .00003477  00000-0  12891-3 0  9997
2 42026  97.3204 306.3451 0007066 182.8745 177.2456 15.28258705250065
1 42026U 17008CG  21239.65400450  .00003312  00000-0  12290-3 0  9997
2 42026  97.3203 306.8599 0007134 181.0574 179.0652 15.28261317250149
